{
    "type": "FeatureCollection",
    "features": [
        {
            "type": "Feature",
            "id": 20326518,
            "geometry": {
                "type": "LineString",
                "coordinates": [
                    [
                        2.3411094,
                        48.8568458
                    ],
                    [
                        2.3410158,
                        48.8567357
                    ],
                    [
                        2.3406813,
                        48.856324
                    ],
                    [
                        2.3405559,
                        48.8562167
                    ]
                ]
            },
            "properties": {
                "alt_name:ru": "\u041d\u043e\u0432\u044b\u0439 \u041c\u043e\u0441\u0442",
                "bridge": "yes",
                "busway:left": "opposite_lane",
                "cycleway:left": "share_busway",
                "highway": "secondary",
                "layer": "1",
                "lit": "yes",
                "maxspeed": "30",
                "maxspeed:type": "sign",
                "name": "Pont Neuf",
                "name:de": "Neue Br\u00fccke",
                "name:es": "Puente Nuevo",
                "name:pt": "Ponte Nova",
                "name:ru": "\u041d\u043e\u0432\u044b\u0439 \u043c\u043e\u0441\u0442",
                "name:zh": "\u65b0\u6865",
                "oneway": "yes",
                "surface": "sett",
                "wikidata": "Q335277",
                "wikipedia": "fr:Pont Neuf",
                "line_width": 5,
                "line_color": "#000000"
            }
        },
        {
            "type": "Feature",
            "id": 20326523,
            "geometry": {
                "type": "LineString",
                "coordinates": [
                    [
                        2.3405559,
                        48.8562167
                    ],
                    [
                        2.3405369,
                        48.8562065
                    ],
                    [
                        2.3405073,
                        48.8561911
                    ],
                    [
                        2.3404015,
                        48.8561313
                    ]
                ]
            },
            "properties": {
                "busway:left": "opposite_lane",
                "cycleway:left": "share_busway",
                "highway": "secondary",
                "lit": "yes",
                "maxspeed": "50",
                "maxspeed:type": "sign",
                "name": "Pont Neuf",
                "name:de": "Neue Br\u00fccke",
                "name:en": "New Bridge",
                "name:es": "Puente Nuevo",
                "name:pt": "Ponte Nova",
                "name:ru": "\u041d\u043e\u0432\u044b\u0439 \u043c\u043e\u0441\u0442",
                "name:zh": "\u65b0\u6865",
                "oneway": "yes",
                "surface": "sett",
                "line_width": 5,
                "line_color": "#000000"
            }
        },
        {
            "type": "Feature",
            "id": 53574163,
            "geometry": {
                "type": "LineString",
                "coordinates": [
                    [
                        2.3423794,
                        48.8583786
                    ],
                    [
                        2.3423442,
                        48.858335
                    ],
                    [
                        2.3423145,
                        48.8582988
                    ],
                    [
                        2.3418785,
                        48.8577624
                    ]
                ]
            },
            "properties": {
                "alt_name:ru": "\u041d\u043e\u0432\u044b\u0439 \u041c\u043e\u0441\u0442",
                "bridge": "yes",
                "cycleway:right": "lane",
                "highway": "secondary",
                "lanes": "2",
                "layer": "1",
                "lit": "yes",
                "maxspeed": "30",
                "maxspeed:type": "sign",
                "name": "Pont Neuf",
                "name:de": "Neue Br\u00fccke",
                "name:es": "Puente Nuevo",
                "name:pt": "Ponte Nova",
                "name:ru": "\u041d\u043e\u0432\u044b\u0439 \u043c\u043e\u0441\u0442",
                "name:zh": "\u65b0\u6865",
                "source": "cadastre-dgi-fr source : Direction G\u00e9n\u00e9rale des Imp\u00f4ts - Cadastre. Mise \u00e0 jour : 2010",
                "surface": "sett",
                "line_width": 5,
                "line_color": "#000000"
            }
        },
        {
            "type": "Feature",
            "id": 53574168,
            "geometry": {
                "type": "LineString",
                "coordinates": [
                    [
                        2.3414284,
                        48.8572037
                    ],
                    [
                        2.3414002,
                        48.8571691
                    ]
                ]
            },
            "properties": {
                "cycleway:left": "no",
                "cycleway:right": "shared_lane",
                "highway": "secondary",
                "lit": "yes",
                "maxspeed": "30",
                "maxspeed:type": "sign",
                "name": "Pont Neuf",
                "source": "cadastre-dgi-fr source : Direction G\u00e9n\u00e9rale des Imp\u00f4ts - Cadastre. Mise \u00e0 jour : 2010",
                "surface": "sett",
                "line_width": 5,
                "line_color": "#000000"
            }
        },
        {
            "type": "Feature",
            "id": 53574179,
            "geometry": {
                "type": "LineString",
                "coordinates": [
                    [
                        2.3423794,
                        48.8583786
                    ],
                    [
                        2.3424643,
                        48.8584826
                    ]
                ]
            },
            "properties": {
                "cycleway:both": "no",
                "highway": "secondary",
                "lit": "yes",
                "maxspeed": "50",
                "maxspeed:type": "sign",
                "name": "Pont Neuf",
                "name:de": "Neue Br\u00fccke",
                "name:es": "Puente Nuevo",
                "name:pt": "Ponte Nova",
                "name:ru": "\u041d\u043e\u0432\u044b\u0439 \u043c\u043e\u0441\u0442",
                "name:zh": "\u65b0\u6865",
                "source": "cadastre-dgi-fr source : Direction G\u00e9n\u00e9rale des Imp\u00f4ts - Cadastre. Mise \u00e0 jour : 2010",
                "surface": "asphalt",
                "line_width": 5,
                "line_color": "#000000"
            }
        },
        {
            "type": "Feature",
            "id": 557297166,
            "geometry": {
                "type": "LineString",
                "coordinates": [
                    [
                        2.3418785,
                        48.8577624
                    ],
                    [
                        2.3415215,
                        48.8573193
                    ],
                    [
                        2.3414284,
                        48.8572037
                    ]
                ]
            },
            "properties": {
                "alt_name:ru": "\u041d\u043e\u0432\u044b\u0439 \u041c\u043e\u0441\u0442",
                "bridge": "yes",
                "highway": "secondary",
                "lanes": "2",
                "layer": "1",
                "lit": "yes",
                "maxspeed": "30",
                "maxspeed:type": "sign",
                "name": "Pont Neuf",
                "name:de": "Neue Br\u00fccke",
                "name:es": "Puente Nuevo",
                "name:pt": "Ponte Nova",
                "name:ru": "\u041d\u043e\u0432\u044b\u0439 \u043c\u043e\u0441\u0442",
                "name:zh": "\u65b0\u6865",
                "source": "cadastre-dgi-fr source : Direction G\u00e9n\u00e9rale des Imp\u00f4ts - Cadastre. Mise \u00e0 jour : 2010",
                "surface": "sett",
                "line_width": 5,
                "line_color": "#000000"
            }
        }
    ]
}